[{"CCSDS_OMM_VERS":"2.0","COMMENT":"GENERATED VIA SPACE-TRACK.ORG API","CREATION_DATE":"2021-05-14T22:26:11","ORIGINATOR":"18 SPCS","OBJECT_NAME":"ONEWEB-0220","OBJECT_ID":"2021-031Y","CENTER_NAME":"EARTH","REF_FRAME":"TEME","TIME_SYSTEM":"UTC","MEAN_ELEMENT_THEORY":"SGP4","EPOCH":"2021-05-14T20:00:01.000224","MEAN_MOTION":"15.42582981","ECCENTRICITY":"0.00109150","INCLINATION":"87.4011","RA_OF_ASC_NODE":"306.4199","ARG_OF_PERICENTER":"176.3715","MEAN_ANOMALY":"4.4476","EPHEMERIS_TYPE":"0","CLASSIFICATION_TYPE":"U","NORAD_CAT_ID":"48232","ELEMENT_SET_NO":"999","REV_AT_EPOCH":"290","BSTAR":"-0.03115900000000","MEAN_MOTION_DOT":"-0.01230502","MEAN_MOTION_DDOT":"0.0000000000000","SEMIMAJOR_AXIS":"6816.626","PERIOD":"93.350","APOAPSIS":"445.932","PERIAPSIS":"431.051","OBJECT_TYPE":"PAYLOAD","RCS_SIZE":"LARGE","COUNTRY_CODE":"UK","LAUNCH_DATE":"2021-04-25","SITE":"VOSTO","DECAY_DATE":null,"FILE":"3036825","GP_ID":"177232293","TLE_LINE0":"0 ONEWEB-0220","TLE_LINE1":"1 48232U 21031Y   21134.83334491 -.01230502  00000-0 -31159-1 0  9997","TLE_LINE2":"2 48232  87.4011 306.4199 0010915 176.3715   4.4476 15.42582981  2901"},{"CCSDS_OMM_VERS":"2.0","COMMENT":"GENERATED VIA SPACE-TRACK.ORG API","CREATION_DATE":"2021-05-15T03:27:12","ORIGINATOR":"18 SPCS","OBJECT_NAME":"ONEWEB-0220","OBJECT_ID":"2021-031Y","CENTER_NAME":"EARTH","REF_FRAME":"TEME","TIME_SYSTEM":"UTC","MEAN_ELEMENT_THEORY":"SGP4","EPOCH":"2021-05-14T22:00:00.999936","MEAN_MOTION":"15.42410445","ECCENTRICITY":"0.00109750","INCLINATION":"87.4018","RA_OF_ASC_NODE":"306.3899","ARG_OF_PERICENTER":"177.5234","MEAN_ANOMALY":"105.6960","EPHEMERIS_TYPE":"0","CLASSIFICATION_TYPE":"U","NORAD_CAT_ID":"48232","ELEMENT_SET_NO":"999","REV_AT_EPOCH":"190","BSTAR":"-0.03391000000000","MEAN_MOTION_DOT":"-0.01321850","MEAN_MOTION_DDOT":"0.0000000000000","SEMIMAJOR_AXIS":"6817.135","PERIOD":"93.360","APOAPSIS":"446.481","PERIAPSIS":"431.518","OBJECT_TYPE":"PAYLOAD","RCS_SIZE":"LARGE","COUNTRY_CODE":"UK","LAUNCH_DATE":"2021-04-25","SITE":"VOSTO","DECAY_DATE":null,"FILE":"3036986","GP_ID":"177258144","TLE_LINE0":"0 ONEWEB-0220","TLE_LINE1":"1 48232U 21031Y   21134.91667824 -.01321850  00000-0 -33910-1 0  9999","TLE_LINE2":"2 48232  87.4018 306.3899 0010975 177.5234 105.6960 15.42410445  1905"},{"CCSDS_OMM_VERS":"2.0","COMMENT":"GENERATED VIA SPACE-TRACK.ORG API","CREATION_DATE":"2021-05-15T06:26:10","ORIGINATOR":"18 SPCS","OBJECT_NAME":"ONEWEB-0220","OBJECT_ID":"2021-031Y","CENTER_NAME":"EARTH","REF_FRAME":"TEME","TIME_SYSTEM":"UTC","MEAN_ELEMENT_THEORY":"SGP4","EPOCH":"2021-05-15T00:00:00.999648","MEAN_MOTION":"15.42193912","ECCENTRICITY":"0.00107620","INCLINATION":"87.4024","RA_OF_ASC_NODE":"306.3605","ARG_OF_PERICENTER":"177.3279","MEAN_ANOMALY":"208.2474","EPHEMERIS_TYPE":"0","CLASSIFICATION_TYPE":"U","NORAD_CAT_ID":"48232","ELEMENT_SET_NO":"999","REV_AT_EPOCH":"293","BSTAR":"-0.03568100000000","MEAN_MOTION_DOT":"-0.01374781","MEAN_MOTION_DDOT":"0.0000000000000","SEMIMAJOR_AXIS":"6817.773","PERIOD":"93.373","APOAPSIS":"446.975","PERIAPSIS":"432.300","OBJECT_TYPE":"PAYLOAD","RCS_SIZE":"LARGE","COUNTRY_CODE":"UK","LAUNCH_DATE":"2021-04-25","SITE":"VOSTO","DECAY_DATE":null,"FILE":"3037025","GP_ID":"177259494","TLE_LINE0":"0 ONEWEB-0220","TLE_LINE1":"1 48232U 21031Y   21135.00001157 -.01374781  00000-0 -35681-1 0  9999","TLE_LINE2":"2 48232  87.4024 306.3605 0010762 177.3279 208.2474 15.42193912  2939"},{"CCSDS_OMM_VERS":"2.0","COMMENT":"GENERATED VIA SPACE-TRACK.ORG API","CREATION_DATE":"2021-05-15T18:57:13","ORIGINATOR":"18 SPCS","OBJECT_NAME":"ONEWEB-0220","OBJECT_ID":"2021-031Y","CENTER_NAME":"EARTH","REF_FRAME":"TEME","TIME_SYSTEM":"UTC","MEAN_ELEMENT_THEORY":"SGP4","EPOCH":"2021-05-15T14:00:01.999872","MEAN_MOTION":"15.40482728","ECCENTRICITY":"0.00109210","INCLINATION":"87.4075","RA_OF_ASC_NODE":"306.1528","ARG_OF_PERICENTER":"175.8290","MEAN_ANOMALY":"204.2565","EPHEMERIS_TYPE":"0","CLASSIFICATION_TYPE":"U","NORAD_CAT_ID":"48232","ELEMENT_SET_NO":"999","REV_AT_EPOCH":"179","BSTAR":"-0.03909300000000","MEAN_MOTION_DOT":"-0.01439906","MEAN_MOTION_DDOT":"0.0000000000000","SEMIMAJOR_AXIS":"6822.821","PERIOD":"93.477","APOAPSIS":"452.137","PERIAPSIS":"437.234","OBJECT_TYPE":"PAYLOAD","RCS_SIZE":"LARGE","COUNTRY_CODE":"UK","LAUNCH_DATE":"2021-04-25","SITE":"VOSTO","DECAY_DATE":null,"FILE":"3037141","GP_ID":"177284766","TLE_LINE0":"0 ONEWEB-0220","TLE_LINE1":"1 48232U 21031Y   21135.58335648 -.01439906  00000-0 -39093-1 0  9999","TLE_LINE2":"2 48232  87.4075 306.1528 0010921 175.8290 204.2565 15.40482728  1794"},{"CCSDS_OMM_VERS":"2.0","COMMENT":"GENERATED VIA SPACE-TRACK.ORG API","CREATION_DATE":"2021-05-16T02:58:51","ORIGINATOR":"18 SPCS","OBJECT_NAME":"ONEWEB-0220","OBJECT_ID":"2021-031Y","CENTER_NAME":"EARTH","REF_FRAME":"TEME","TIME_SYSTEM":"UTC","MEAN_ELEMENT_THEORY":"SGP4","EPOCH":"2021-05-15T22:00:00.999936","MEAN_MOTION":"15.39442832","ECCENTRICITY":"0.00108640","INCLINATION":"87.4104","RA_OF_ASC_NODE":"306.0336","ARG_OF_PERICENTER":"173.5152","MEAN_ANOMALY":"253.1649","EPHEMERIS_TYPE":"0","CLASSIFICATION_TYPE":"U","NORAD_CAT_ID":"48232","ELEMENT_SET_NO":"999","REV_AT_EPOCH":"178","BSTAR":"-0.03751400000000","MEAN_MOTION_DOT":"-0.01324322","MEAN_MOTION_DDOT":"0.0000000000000","SEMIMAJOR_AXIS":"6825.893","PERIOD":"93.540","APOAPSIS":"455.173","PERIAPSIS":"440.342","OBJECT_TYPE":"PAYLOAD","RCS_SIZE":"MEDIUM","COUNTRY_CODE":"UK","LAUNCH_DATE":"2021-04-25","SITE":"VOSTO","DECAY_DATE":null,"FILE":"3037145","GP_ID":"177307994","TLE_LINE0":"0 ONEWEB-0220","TLE_LINE1":"1 48232U 21031Y   21135.91667824 -.01324322  00000-0 -37514-1 0  9991","TLE_LINE2":"2 48232  87.4104 306.0336 0010864 173.5152 253.1649 15.39442832  1786"},{"CCSDS_OMM_VERS":"2.0","COMMENT":"GENERATED VIA SPACE-TRACK.ORG API","CREATION_DATE":"2021-05-16T18:30:14","ORIGINATOR":"18 SPCS","OBJECT_NAME":"ONEWEB-0220","OBJECT_ID":"2021-031Y","CENTER_NAME":"EARTH","REF_FRAME":"TEME","TIME_SYSTEM":"UTC","MEAN_ELEMENT_THEORY":"SGP4","EPOCH":"2021-05-16T14:00:01.000224","MEAN_MOTION":"15.37526164","ECCENTRICITY":"0.00112180","INCLINATION":"87.4163","RA_OF_ASC_NODE":"305.7982","ARG_OF_PERICENTER":"170.4842","MEAN_ANOMALY":"345.9215","EPHEMERIS_TYPE":"0","CLASSIFICATION_TYPE":"U","NORAD_CAT_ID":"48232","ELEMENT_SET_NO":"999","REV_AT_EPOCH":"178","BSTAR":"-0.04309400000000","MEAN_MOTION_DOT":"-0.01440487","MEAN_MOTION_DDOT":"0.0000000000000","SEMIMAJOR_AXIS":"6831.564","PERIOD":"93.657","APOAPSIS":"461.093","PERIAPSIS":"445.766","OBJECT_TYPE":"PAYLOAD","RCS_SIZE":"MEDIUM","COUNTRY_CODE":"UK","LAUNCH_DATE":"2021-04-25","SITE":"VOSTO","DECAY_DATE":null,"FILE":"3037149","GP_ID":"177330927","TLE_LINE0":"0 ONEWEB-0220","TLE_LINE1":"1 48232U 21031Y   21136.58334491 -.01440487  00000-0 -43094-1 0  9997","TLE_LINE2":"2 48232  87.4163 305.7982 0011218 170.4842 345.9215 15.37526164  1788"},{"CCSDS_OMM_VERS":"2.0","COMMENT":"GENERATED VIA SPACE-TRACK.ORG API","CREATION_DATE":"2021-05-17T03:04:03","ORIGINATOR":"18 SPCS","OBJECT_NAME":"ONEWEB-0220","OBJECT_ID":"2021-031Y","CENTER_NAME":"EARTH","REF_FRAME":"TEME","TIME_SYSTEM":"UTC","MEAN_ELEMENT_THEORY":"SGP4","EPOCH":"2021-05-16T18:00:00.999648","MEAN_MOTION":"15.36982234","ECCENTRICITY":"0.00112110","INCLINATION":"87.4178","RA_OF_ASC_NODE":"305.7388","ARG_OF_PERICENTER":"171.2237","MEAN_ANOMALY":"186.8976","EPHEMERIS_TYPE":"0","CLASSIFICATION_TYPE":"U","NORAD_CAT_ID":"48232","ELEMENT_SET_NO":"999","REV_AT_EPOCH":"181","BSTAR":"-0.04141100000000","MEAN_MOTION_DOT":"-0.01366783","MEAN_MOTION_DDOT":"0.0000000000000","SEMIMAJOR_AXIS":"6833.176","PERIOD":"93.690","APOAPSIS":"462.702","PERIAPSIS":"447.380","OBJECT_TYPE":"PAYLOAD","RCS_SIZE":"MEDIUM","COUNTRY_CODE":"UK","LAUNCH_DATE":"2021-04-25","SITE":"VOSTO","DECAY_DATE":null,"FILE":"3037152","GP_ID":"177354211","TLE_LINE0":"0 ONEWEB-0220","TLE_LINE1":"1 48232U 21031Y   21136.75001157 -.01366783  00000-0 -41411-1 0  9993","TLE_LINE2":"2 48232  87.4178 305.7388 0011211 171.2237 186.8976 15.36982234  1817"},{"CCSDS_OMM_VERS":"2.0","COMMENT":"GENERATED VIA SPACE-TRACK.ORG API","CREATION_DATE":"2021-05-17T20:05:54","ORIGINATOR":"18 SPCS","OBJECT_NAME":"ONEWEB-0220","OBJECT_ID":"2021-031Y","CENTER_NAME":"EARTH","REF_FRAME":"TEME","TIME_SYSTEM":"UTC","MEAN_ELEMENT_THEORY":"SGP4","EPOCH":"2021-05-17T14:00:01.000224","MEAN_MOTION":"15.34556492","ECCENTRICITY":"0.00115060","INCLINATION":"87.4254","RA_OF_ASC_NODE":"305.4465","ARG_OF_PERICENTER":"167.6075","MEAN_ANOMALY":"114.5357","EPHEMERIS_TYPE":"0","CLASSIFICATION_TYPE":"U","NORAD_CAT_ID":"48232","ELEMENT_SET_NO":"999","REV_AT_EPOCH":"176","BSTAR":"-0.04732200000000","MEAN_MOTION_DOT":"-0.01437902","MEAN_MOTION_DDOT":"0.0000000000000","SEMIMAJOR_AXIS":"6840.375","PERIOD":"93.838","APOAPSIS":"470.111","PERIAPSIS":"454.370","OBJECT_TYPE":"PAYLOAD","RCS_SIZE":"MEDIUM","COUNTRY_CODE":"UK","LAUNCH_DATE":"2021-04-25","SITE":"VOSTO","DECAY_DATE":null,"FILE":"3037224","GP_ID":"177377736","TLE_LINE0":"0 ONEWEB-0220","TLE_LINE1":"1 48232U 21031Y   21137.58334491 -.01437902  00000-0 -47322-1 0  9994","TLE_LINE2":"2 48232  87.4254 305.4465 0011506 167.6075 114.5357 15.34556492  1767"}]